
    END TwoLineElement


    Begin TwoLineElement

    Enabled             Yes

    Source              OnlineAGI
    LastUpdated         22 Jun 2016 11:26:10.000

    SwitchMethod        Epoch
    SwitchEpoch         19 Jun 2016 15:53:23.398

    TLE
    1 40697U 15028A   16171.66207637  .00000006  00000-0  18982-4 0  9993
    2 40697  98.5680 245.8411 0001297  94.7189 265.4149 14.30821746 51852

    END TwoLineElement


    Begin TwoLineElement

    Enabled             Yes

    Source              OnlineAGI
    LastUpdated         22 Jun 2016 11:26:10.000

    SwitchMethod        Epoch
    SwitchEpoch         20 Jun 2016 00:16:53.093

    TLE
    1 40697U 15028A   16172.01172561  .00000020  00000-0  24184-4 0  9997
    2 40697  98.5681 246.1856 0001327  95.6166 264.5153 14.30821641 51904

    END TwoLineElement


    Begin TwoLineElement

    Enabled             Yes

    Source              OnlineAGI
    LastUpdated         22 Jun 2016 11:26:10.000

    SwitchMethod        Epoch
    SwitchEpoch         21 Jun 2016 04:48:46.136

    TLE
    1 40697U 15028A   16173.20053398  .00000016  00000-0  22644-4 0  9999
    2 40697  98.5681 247.3571 0001304  92.5456 267.5890 14.30821799 52078
